OBJECT_NAME,OBJECT_ID,EPOCH,MEAN_MOTION,ECCENTRICITY,INCLINATION,RA_OF_ASC_NODE,ARG_OF_PERICENTER,MEAN_ANOMALY,EPHEMERIS_TYPE,CLASSIFICATION_TYPE,NORAD_CAT_ID,ELEMENT_SET_NO,REV_AT_EPOCH,BSTAR,MEAN_MOTION_DOT,MEAN_MOTION_DDOT
HAWK-5A,2022-057AB,2026-07-14T20:02:06.669024,15.52315274,.0003386,97.6620,356.4923,339.4098,20.7016,0,U,52757,999,23063,.17633E-3,.10626E-3,0
HAWK-6B,2023-011A,2026-07-14T09:28:57.313920,15.23148645,.00040761,40.4968,193.3478,236.2544,123.7877,0,U,55324,999,19199,.10934345E-3,.2441E-4,0
HAWK-6C,2023-011C,2026-07-14T09:28:02.841312,15.23150953,.00045801,40.4960,190.1873,229.0104,131.0309,0,U,55326,999,19200,.10994346E-3,.2456E-4,0
HAWK-6A,2023-011D,2026-07-14T09:28:06.038976,15.23150323,.00041197,40.4969,191.8141,226.4695,133.5773,0,U,55327,999,19200,.11301398E-3,.253E-4,0
HAWK-7A,2023-054P,2026-07-14T18:07:15.223584,15.27629535,.0001462,97.2666,82.3917,336.0363,24.0808,0,U,56191,999,18123,.11646E-3,.3073E-4,0
HAWK-7B,2023-054R,2026-07-14T18:07:09.236928,15.27627982,.0001361,97.2692,80.6653,18.0785,342.0503,0,U,56193,999,18123,.11883E-3,.3137E-4,0
HAWK-7C,2023-054Y,2026-07-14T16:32:39.173856,15.27630255,.0000982,97.2667,81.3617,357.5569,2.5666,0,U,56200,999,18122,.115E-3,.3034E-4,0
