HAWK-5A                 
1 52757U 22057AB  26195.83479941  .00010626  00000+0  17633-3 0  9997
2 52757  97.6620 356.4923 0003386 339.4098  20.7016 15.52315274230631
HAWK-6B                 
1 55324U 23011A   26195.39510780  .00002441  00000+0  10934-3 0  9992
2 55324  40.4968 193.3478 0004076 236.2544 123.7877 15.23148645191993
HAWK-6C                 
1 55326U 23011C   26195.39447733  .00002456  00000+0  10994-3 0  9993
2 55326  40.4960 190.1873 0004580 229.0104 131.0309 15.23150953192003
HAWK-6A                 
1 55327U 23011D   26195.39451434  .00002530  00000+0  11301-3 0  9993
2 55327  40.4969 191.8141 0004119 226.4695 133.5773 15.23150323192006
HAWK-7A                 
1 56191U 23054P   26195.75503731  .00003073  00000+0  11646-3 0  9993
2 56191  97.2666  82.3917 0001462 336.0363  24.0808 15.27629535181239
HAWK-7B                 
1 56193U 23054R   26195.75496802  .00003137  00000+0  11883-3 0  9999
2 56193  97.2692  80.6653 0001361  18.0785 342.0503 15.27627982181230
HAWK-7C                 
1 56200U 23054Y   26195.68934229  .00003034  00000+0  11500-3 0  9992
2 56200  97.2667  81.3617 0000982 357.5569   2.5666 15.27630255181222
